1 45794U 20039A   25333.20638442  .00010245  00000+0  37742-3 0  9995
2 45794  97.5146  99.4406 0014136  71.1846 289.0925 15.27932084303177
